OBJECT_NAME,OBJECT_ID,EPOCH,MEAN_MOTION,ECCENTRICITY,INCLINATION,RA_OF_ASC_NODE,ARG_OF_PERICENTER,MEAN_ANOMALY,EPHEMERIS_TYPE,CLASSIFICATION_TYPE,NORAD_CAT_ID,ELEMENT_SET_NO,REV_AT_EPOCH,BSTAR,MEAN_MOTION_DOT,MEAN_MOTION_DDOT
GSAT0233 (GALILEO 33),2025-302A,2026-05-12T03:28:37.094592,1.70474365,.00018963,54.3127,103.1574,244.5139,111.9481,0,U,67160,999,250,0,.58E-6,0
GSAT0234 (GALILEO 34),2025-302C,2026-05-11T13:46:17.855328,1.70474393,.00038181,54.3141,103.1727,297.1874,248.9090,0,U,67162,999,255,0,.58E-6,0
