GSAT0233 (GALILEO 33)   
1 67160U 25302A   26132.14487377  .00000058  00000+0  00000+0 0  9998
2 67160  54.3127 103.1574 0001896 244.5139 111.9481  1.70474365  2506
GSAT0234 (GALILEO 34)   
1 67162U 25302C   26131.57381777  .00000058  00000+0  00000+0 0  9993
2 67162  54.3141 103.1727 0003818 297.1874 248.9090  1.70474393  2553
